{"type":"Feature","properties":{"name":"India","source":"OpenStreetMap Nominatim","license":"ODbL 1.0"},"geometry":{"type":"MultiPolygon","coordinates":[[[[67.9544415,23.4747156],[68.422641,23.0681938],[68.785285,22.1168315],[69.0770196,21.8035782],[69.5529548,21.3946552],[70.0378352,20.8862922],[70.4381263,20.6257885],[72.4523373,19.7037532],[72.5411156,19.3010346],[72.6051886,18.6666106],[72.7124814,18.2162023],[72.9330121,17.5130782],[73.0470206,16.9935927],[73.1048496,16.5031086],[73.2639168,15.8095226],[73.8761662,14.714523],[74.1766682,14.2739099],[74.1195172,14.0461466],[74.1305189,13.9385874],[74.4492782,13.3419703],[74.4781194,13.1280456],[75.0163343,11.9200111],[75.3515104,11.3905271],[75.8345657,10.4619373],[76.025362,9.9216449],[76.1469602,9.3497007],[76.3680723,8.8080015],[76.82767,8.2477021],[77.1185253,8.0154258],[77.2577708,7.9283994],[77.5895154,7.8749436],[78.2096606,8.2282567],[78.4031948,8.6351276],[78.6788914,8.9139986],[79.0839963,8.9850575],[79.4924888,8.8978796],[79.5333333,9.2166667],[79.4623914,9.4749949],[79.3359656,9.5279474],[79.1808144,9.4892345],[79.1245025,9.5132417],[79.3265105,9.8150066],[79.4440061,9.9396379],[79.4695398,10.022907],[79.4564418,10.1109563],[79.878653,10.0790002],[80.0070598,10.1362279],[80.0796477,10.2395385],[80.0614992,11.21056],[79.9942112,11.6839846],[80.1754124,12.1267818],[80.3258437,12.3512654],[80.4013362,12.5398364],[80.5536025,13.2924497],[80.459751,13.8091043],[80.4050334,14.5651611],[80.4171979,15.3486289],[81.1214884,15.5805902],[81.1950798,15.6425863],[81.3021934,15.8176325],[81.7944802,16.1145218],[82.4507585,16.4127131],[83.3629538,17.4465973],[84.2762745,18.1685765],[84.7026955,18.6446938],[86.5092486,19.7943737],[86.9539559,20.2107529],[87.2389871,20.5779062],[89.1956604,21.3648404],[89.166009,21.5689759],[89.0296968,21.7881995],[89.025655,21.913829],[89.0736815,21.9295606],[89.0850429,21.9874139],[89.0408509,22.0995496],[89.0984997,22.153546],[89.0700625,22.1504766],[89.0714841,22.1960575],[88.9959784,22.2857459],[89.0240524,22.2987086],[88.9847735,22.3261886],[88.9723429,22.4112788],[89.0000865,22.4295816],[88.9962042,22.4694074],[88.94153,22.5602767],[88.9600096,22.6166466],[88.9268534,22.6520653],[88.9621343,22.6941597],[88.911741,22.7576992],[88.9591469,22.7968345],[88.9685893,22.8446661],[88.9452782,22.8808118],[88.910689,22.879846],[88.8939693,22.9524104],[88.8595155,22.9426868],[88.8711447,22.9785187],[88.8449027,23.0092408],[88.8799706,23.0069289],[88.8684233,23.1011008],[88.9958861,23.2130182],[88.8241259,23.2338799],[88.8116533,23.2566127],[88.789814,23.2185165],[88.724722,23.248056],[88.696208,23.302238],[88.7453055,23.3076162],[88.7463467,23.3963976],[88.7992072,23.4988489],[88.7429881,23.4808225],[88.6576936,23.5479923],[88.6410669,23.6075947],[88.5776782,23.6026789],[88.5911076,23.6383896],[88.5557976,23.6494897],[88.5786921,23.7620334],[88.5542365,23.7849991],[88.600351,23.8166748],[88.5745832,23.8631689],[88.669722,23.868056],[88.7369676,23.9191584],[88.722778,24.002222],[88.7470533,24.0316089],[88.698611,24.090556],[88.708333,24.171389],[88.745278,24.192778],[88.7375,24.250833],[88.691111,24.316667],[88.652222,24.294167],[88.497778,24.320833],[88.323889,24.434444],[88.125556,24.508611],[88.082222,24.625556],[88.007915,24.6678238],[88.0627926,24.725324],[88.06765,24.7707103],[88.1622588,24.8513729],[88.1368512,24.9375266],[88.2227518,24.9618552],[88.264167,24.885556],[88.3425,24.870278],[88.46,25.069444],[88.4386866,25.2078061],[88.4987633,25.2108489],[88.5638056,25.1752662],[88.7090774,25.2075937],[88.8058201,25.1705327],[88.8435496,25.2135374],[88.9227384,25.1644216],[88.9480171,25.1766921],[88.9368529,25.2106541],[88.9608912,25.2086426],[88.9560807,25.255143],[89.0082203,25.2648377],[89.0088293,25.3031977],[88.929667,25.304275],[88.8408379,25.3639731],[88.8103853,25.5233387],[88.7593827,25.5265852],[88.7655074,25.4960727],[88.7225404,25.5020457],[88.6994113,25.4713136],[88.6088975,25.5165038],[88.5398226,25.5087153],[88.4995327,25.5840526],[88.4445316,25.5971377],[88.4542444,25.6645068],[88.3711725,25.696774],[88.2664749,25.7832898],[88.2692283,25.8083869],[88.151801,25.7757646],[88.1145054,25.798346],[88.085681,25.916747],[88.1394478,26.0130068],[88.182271,26.0254777],[88.1828148,26.0730648],[88.1586904,26.0800373],[88.1773699,26.147894],[88.3507229,26.2204792],[88.3495412,26.2824716],[88.4151355,26.3153049],[88.457624,26.3765599],[88.4823389,26.3498313],[88.523871,26.3597579],[88.4862941,26.4601153],[88.371997,26.4880288],[88.3523696,26.4477655],[88.3315922,26.4819499],[88.3976158,26.6269136],[88.4177314,26.6318743],[88.4357721,26.5452658],[88.4851379,26.5411257],[88.5598929,26.4575762],[88.6228888,26.4710188],[88.623766,26.4350626],[88.7017246,26.3888417],[88.6809531,26.3797918],[88.7046265,26.332605],[88.7460484,26.3474473],[88.747533,26.3214635],[88.6751471,26.3201688],[88.666487,26.2629947],[88.7934488,26.3100595],[88.8417029,26.2307824],[88.8777936,26.2335177],[88.8617421,26.2734751],[88.8983441,26.2887677],[88.9532528,26.2420565],[89.0507129,26.2415507],[89.0608664,26.2914099],[88.9954472,26.2919731],[89.0008786,26.3298263],[88.9190456,26.3589094],[88.9047234,26.4086703],[88.9572807,26.4591437],[88.9937379,26.4128769],[89.0873725,26.3976258],[89.0841877,26.3220348],[89.136206,26.3201974],[89.1232457,26.2871544],[89.1046849,26.3159112],[89.1000531,26.2795034],[89.1409092,26.2357422],[89.1553274,26.1383238],[89.229636,26.1239392],[89.2674871,26.0921058],[89.2540688,26.0640906],[89.3493369,26.0096081],[89.3932582,26.0066801],[89.423717,26.0475073],[89.4300876,26.0115746],[89.5438706,26.0056548],[89.5402263,25.9701058],[89.5770477,25.9690827],[89.6050804,26.063649],[89.6501178,26.0628307],[89.629775,26.1072815],[89.5962786,26.0985617],[89.6300876,26.1185128],[89.6039085,26.1175386],[89.590835,26.1573032],[89.6089071,26.1804975],[89.6491874,26.1645129],[89.6342379,26.2296043],[89.6792665,26.238246],[89.7012367,26.1725249],[89.6821385,26.1629554],[89.7466345,26.1586777],[89.756422,26.1089953],[89.7947965,26.0877189],[89.7739434,26.0378131],[89.7958949,26.0224851],[89.8080396,26.0452935],[89.819777,25.9884078],[89.8339605,26.0128431],[89.871211,25.9792843],[89.8254244,25.9455367],[89.8872818,25.9452273],[89.8169619,25.8147889],[89.8822773,25.6215713],[89.816389,25.390833],[89.83085,25.296124],[89.9666066,25.3038119],[90.1122726,25.2254014],[90.3301816,25.1938459],[90.4410581,25.1446386],[90.6634091,25.1980425],[90.6661386,25.166028],[90.7333024,25.1549708],[90.7802861,25.1863026],[90.8627665,25.1578626],[91.267892,25.2073482],[91.471075,25.1349615],[91.6127066,25.1762609],[91.6016779,25.143311],[91.6375288,25.1227164],[91.7040223,25.1600563],[91.7417082,25.1431053],[91.7521903,25.1756664],[92.0630816,25.1870088],[92.193056,25.14],[92.2271132,25.0963064],[92.4283755,25.0312162],[92.4206706,24.9670232],[92.4895706,24.9485786],[92.4838114,24.8626721],[92.3998046,24.8485806],[92.298181,24.9164968],[92.2341219,24.9015406],[92.2978806,24.7363054],[92.248587,24.6551739],[92.2249272,24.5167514],[92.1567374,24.5181473],[92.1651676,24.4176207],[92.137785,24.4239706],[92.0910984,24.370842],[91.9729149,24.383717],[91.99596,24.3222563],[91.9588709,24.3538312],[91.9240478,24.3347238],[91.9477773,24.2642146],[91.9029736,24.1360134],[91.8445229,24.190263],[91.8446249,24.2258108],[91.8173039,24.2086167],[91.7498463,24.241183],[91.7607388,24.1407424],[91.6867393,24.160782],[91.6596758,24.2274179],[91.6428155,24.1111079],[91.586473,24.0715976],[91.3759357,24.1053888],[91.3980424,24.0499569],[91.3795835,23.9757],[91.3034061,23.9944324],[91.2656003,23.9445958],[91.2772304,23.9218941],[91.237472,23.9261699],[91.2535197,23.8346662],[91.2201101,23.7358205],[91.1580572,23.7366627],[91.1566088,23.6909663],[91.2101188,23.6876676],[91.199787,23.6458412],[91.1600018,23.6634961],[91.1610585,23.6113942],[91.2142816,23.5510447],[91.202091,23.5206677],[91.2492192,23.4904501],[91.2932244,23.3523894],[91.3210684,23.3613181],[91.2914407,23.3190307],[91.3143897,23.3067786],[91.3483237,23.1029473],[91.4123708,23.0637264],[91.3784757,23.1841452],[91.4160763,23.2841041],[91.508646,23.1845064],[91.4927325,23.1573426],[91.5516365,23.038345],[91.5439868,22.9998985],[91.6061463,22.9719805],[91.6189599,22.9376459],[91.6452455,22.9849059],[91.7206076,22.9875011],[91.7801124,23.0290096],[91.7743242,23.0694443],[91.8356287,23.092318],[91.8131304,23.0985404],[91.7599797,23.3004649],[91.8410307,23.4094159],[91.939728,23.4386299],[91.9336849,23.4659774],[91.9673292,23.4863896],[91.9276285,23.6823277],[91.9505051,23.7311651],[91.9764367,23.7362355],[92.0006785,23.6728336],[92.067959,23.647878],[92.1467972,23.7378707],[92.2207564,23.6909884],[92.2153383,23.6539294],[92.2384939,23.7254832],[92.2792232,23.7263524],[92.2729931,23.6423282],[92.4041013,23.2405897],[92.3464383,23.2363823],[92.3580114,23.1031632],[92.3923276,23.0564332],[92.3714788,22.9360965],[92.4488886,22.8952374],[92.4740871,22.7467356],[92.5166724,22.722727],[92.5393317,22.5892972],[92.5217686,22.5601316],[92.5513158,22.5136163],[92.6087074,22.1642684],[92.6054664,22.1233192],[92.5625471,22.1282673],[92.6026222,22.0618285],[92.6032279,21.9786619],[92.6768937,22.0124056],[92.6995089,22.1551653],[92.8598472,22.0670222],[92.9062797,21.9402494],[92.9300099,22.0179961],[92.9566569,22.0299966],[93.003611,21.999722],[93.009722,22.1075],[93.0595478,22.1009036],[93.038019,22.1950174],[93.078056,22.211667],[93.1573236,22.186836],[93.1419713,22.245452],[93.2022786,22.2631642],[93.1852954,22.428135],[93.1389848,22.4542866],[93.1285448,22.5242519],[93.1064675,22.5277221],[93.1408882,22.5912398],[93.0952775,22.6741602],[93.0953615,22.806921],[93.1353895,22.911823],[93.1650146,22.9091402],[93.126075,23.0407614],[93.1840414,23.0598429],[93.2301413,23.0110033],[93.2925924,23.0061482],[93.3868974,23.1430249],[93.3679975,23.1441371],[93.3889082,23.2171731],[93.3553657,23.3526817],[93.4013712,23.3834984],[93.394236,23.5040475],[93.4372455,23.6870339],[93.393458,23.758927],[93.3935543,23.928829],[93.3507483,23.9416671],[93.3284062,23.9850448],[93.3280742,24.0800854],[93.3482659,24.1053643],[93.4069955,24.0799875],[93.502778,23.948225],[93.555842,23.97889],[93.59474,23.96197],[93.626484,24.011684],[93.756605,24.006105],[93.810853,23.925344],[93.932078,23.950813],[94.094924,23.885429],[94.116851,23.837881],[94.156096,23.847133],[94.3220807,24.3289783],[94.379597,24.377264],[94.362106,24.391799],[94.396102,24.408799],[94.4037267,24.4819714],[94.4562109,24.5678197],[94.541034,24.642682],[94.543742,24.703288],[94.606808,24.711173],[94.633165,24.835094],[94.71372,24.930192],[94.703619,24.982667],[94.73721,25.00086],[94.737559,25.13495],[94.577399,25.21581],[94.635598,25.395509],[94.686378,25.466217],[94.782863,25.481845],[94.844971,25.560366],[94.8989001,25.565629],[94.8821997,25.5913773],[94.9365166,25.6681337],[95.0487018,25.7597266],[95.0115719,25.898248],[95.0956361,25.9557097],[95.1857753,26.0733017],[95.1174911,26.101787],[95.142751,26.2124887],[95.1142196,26.2328253],[95.1323104,26.3775105],[95.0617576,26.4497976],[95.1541543,26.5828089],[95.148983,26.6159249],[95.2339339,26.6824637],[95.302841,26.650863],[95.4306772,26.7000927],[95.5247803,26.8227828],[95.6080131,26.8132842],[95.6668965,26.9032755],[95.7238205,26.8825622],[95.8015801,27.0148865],[95.8698787,27.0130842],[95.9457812,27.0514132],[96.0228479,27.1806796],[96.2285031,27.278722],[96.4576212,27.3068681],[96.5237249,27.2863625],[96.6053347,27.3658797],[96.7035337,27.3724528],[96.7966013,27.3457714],[96.88462,27.2597599],[96.8544094,27.2108549],[96.8739219,27.181332],[96.9846069,27.1554116],[97.0634739,27.0918137],[97.1385085,27.0917751],[97.1629269,27.1442735],[96.9029052,27.4534563],[96.9350116,27.5079866],[96.89326,27.6135101],[96.9847962,27.6673352],[97.0201429,27.742247],[97.0880974,27.7354525],[97.2428228,27.8969881],[97.2978958,27.9162838],[97.3662,27.8772378],[97.3616885,27.9657567],[97.3950905,28.0118793],[97.3548626,28.0666308],[97.3122714,28.0623846],[97.360964,28.2040966],[97.2840729,28.2315179],[97.2380143,28.2937316],[97.1268741,28.3616308],[97.0780093,28.3711577],[97.0156533,28.3204772],[96.9246376,28.3530882],[96.8595165,28.4837166],[96.759798,28.519433],[96.71465,28.6100008],[96.6870197,28.5903057],[96.6455214,28.6194812],[96.6306779,28.7346854],[96.5740111,28.7832347],[96.5901723,28.8185539],[96.5237946,28.8624056],[96.5237828,28.9358387],[96.4469919,28.94286],[96.4332879,29.0101114],[96.3640932,29.0426601],[96.3656585,29.0810645],[96.3070293,29.1255952],[96.3194726,29.1690696],[96.2605044,29.2176036],[96.2653241,29.2453838],[96.1527057,29.2965214],[96.1130123,29.3565862],[95.9669042,29.3745566],[95.877492,29.314569],[95.841083,29.321233],[95.838883,29.353088],[95.757408,29.322608],[95.743189,29.225688],[95.708829,29.204005],[95.605629,29.235996],[95.595676,29.18801],[95.5050038,29.193578],[95.5077871,29.1259826],[95.4596528,29.1372488],[95.4331472,29.1901998],[95.4133356,29.126702],[95.3053718,29.1405665],[95.2650772,29.0714084],[95.2145245,29.1082214],[95.1038865,29.0974076],[95.0978569,29.1430294],[94.9973537,29.1747687],[95.0217624,29.1275593],[94.884191,29.179093],[94.807259,29.164868],[94.803702,29.208415],[94.751664,29.22968],[94.7349261,29.2869657],[94.693603,29.317934],[94.655862,29.305741],[94.5397089,29.2187134],[94.456855,29.213132],[94.448073,29.183376],[94.393205,29.184609],[94.378907,29.154127],[94.295003,29.1512924],[94.276863,29.093863],[94.366375,29.025931],[94.257702,28.930225],[94.1797568,28.936924],[94.135869,28.890453],[94.0595284,28.873805],[94.021487,28.839358],[94.019745,28.793489],[93.9700874,28.8170923],[93.9158115,28.7733526],[93.9195946,28.741108],[93.7913362,28.7360215],[93.7147106,28.6647447],[93.5219436,28.6733758],[93.389643,28.5311234],[93.2505135,28.549311],[93.149637,28.4467974],[93.170768,28.4294302],[93.148613,28.3665682],[92.9449771,28.2595398],[92.9329267,28.2053643],[92.6776561,28.1513143],[92.6568889,28.0769975],[92.731862,28.0545603],[92.7304887,27.9800008],[92.4775886,27.8364956],[92.4617958,27.7941738],[92.4263906,27.8029812],[92.4218416,27.8356987],[92.3246812,27.7975146],[92.2939539,27.8722759],[92.2443866,27.887753],[92.0572757,27.7798604],[91.9784789,27.7790847],[91.9247579,27.7166256],[91.8734586,27.7220845],[91.8296651,27.7905092],[91.7789483,27.7709373],[91.65614,27.8309908],[91.5769184,27.8327587],[91.5771376,27.8117323],[91.6298269,27.80933],[91.6447928,27.763124],[91.628826,27.6993451],[91.5640452,27.6412268],[91.5844848,27.6084378],[91.5659726,27.5839056],[91.651964,27.4833721],[91.6945283,27.5055681],[91.7147529,27.4746371],[91.7741904,27.465432],[92.0175756,27.4801216],[92.0649877,27.327373],[92.1232834,27.2866091],[92.037693,27.2584847],[92.0718383,27.2347793],[92.0269266,27.1685743],[92.0311915,27.0800385],[92.1213459,26.9606719],[92.1025286,26.8694964],[92.056567,26.8496737],[91.8938271,26.9196926],[91.6915139,26.807182],[91.6271329,26.8211227],[91.4944493,26.7922837],[91.4080056,26.8389231],[91.3386872,26.7806857],[91.0974697,26.8217841],[91.0542963,26.7798159],[90.6997561,26.7695412],[90.5475193,26.8164781],[90.4162359,26.904046],[90.3729559,26.9020802],[90.3001714,26.8486455],[90.2300262,26.8587247],[90.1836851,26.7992918],[90.1906371,26.7679982],[89.9685727,26.7219913],[89.8649555,26.735659],[89.8624254,26.7014664],[89.7715969,26.7021871],[89.751606,26.7345917],[89.6254327,26.7228744],[89.6497891,26.7766789],[89.5584572,26.8135437],[89.4667868,26.8037289],[89.3789399,26.8622805],[89.2623264,26.8154816],[89.1333927,26.8066943],[89.0956396,26.8917031],[89.0467643,26.898364],[89.0215481,26.9408303],[88.9803169,26.9173182],[88.9452798,26.9327214],[88.9520304,26.9697046],[88.9225459,26.9930279],[88.8766694,26.9464608],[88.8704921,27.1091474],[88.7455742,27.1420837],[88.7890753,27.1853096],[88.8023805,27.248585],[88.9141257,27.2899432],[88.9211683,27.3274652],[88.8056909,27.4070462],[88.7768269,27.4692925],[88.792434,27.530152],[88.7633024,27.5664244],[88.8482299,27.6681918],[88.8570853,27.8155275],[88.8881208,27.8564067],[88.8676359,27.9197106],[88.8376138,27.9285014],[88.836082,28.015297],[88.7547412,28.0803006],[88.6706135,28.0741145],[88.6329209,28.1240465],[88.5544455,28.0822883],[88.5459517,28.0340007],[88.4949482,28.0552091],[88.4135914,27.981077],[88.3404003,27.9858068],[88.2513275,27.941664],[88.237638,27.969512],[88.2069905,27.9406729],[88.1424595,27.9652766],[88.1179987,27.918068],[88.1961627,27.854216],[88.1729883,27.8206628],[88.1971486,27.7910131],[88.0436016,27.4961706],[88.0800878,27.4300117],[88.0415404,27.3722141],[88.0664692,27.3361035],[87.9872898,27.1195069],[88.037493,27.0367855],[88.1354044,26.9850549],[88.1203237,26.9506055],[88.173383,26.8656669],[88.189666,26.7495485],[88.1609316,26.6367948],[88.1056479,26.5608332],[88.0951105,26.4378984],[88.0072089,26.3610329],[87.9269206,26.4175272],[87.8881188,26.4869511],[87.8486506,26.4368904],[87.792803,26.4690046],[87.7599646,26.4089857],[87.6774084,26.4356246],[87.6057945,26.3805202],[87.4639078,26.4398641],[87.3686008,26.4081549],[87.3409384,26.3477581],[87.2658365,26.3739558],[87.2606873,26.4094151],[87.1616609,26.4042328],[87.0914995,26.450408],[87.0711578,26.5860156],[87.0446154,26.5873071],[87.0151705,26.5319823],[86.9318441,26.515929],[86.8941021,26.4619734],[86.8334002,26.4388673],[86.7654313,26.4593635],[86.730881,26.4224377],[86.5700779,26.4965203],[86.5417837,26.5387041],[86.3330643,26.6191208],[86.2524245,26.617186],[86.2172941,26.5885714],[86.0268816,26.6667628],[85.9560817,26.6489708],[85.9466779,26.6127567],[85.8503648,26.5684013],[85.8508715,26.6086141],[85.7321472,26.6541461],[85.7209228,26.8204411],[85.6238726,26.873879],[85.3357313,26.7422493],[85.2120062,26.7581802],[85.1765049,26.8102599],[85.1907447,26.8698969],[85.0240928,26.8543976],[85.0608362,26.8857614],[84.9691569,26.9164442],[84.9624956,26.9605153],[84.8554074,26.985516],[84.8253891,27.0209814],[84.7932429,26.9958807],[84.6432983,27.0461682],[84.6908813,27.2149332],[84.6221253,27.3364549],[84.2939619,27.3849153],[84.2540802,27.4528339],[84.2078114,27.442836],[84.1455518,27.5187032],[84.0986036,27.5173251],[84.0268792,27.4333718],[83.8738678,27.4345924],[83.8557792,27.3518667],[83.6145262,27.4692222],[83.3889139,27.4797631],[83.4094034,27.412479],[83.359182,27.3431148],[83.3171907,27.3301647],[83.1878974,27.4543758],[83.0346267,27.4487825],[82.9541429,27.4677793],[82.9293481,27.5012379],[82.7355705,27.502349],[82.7560426,27.5924351],[82.708454,27.7226064],[82.4488049,27.6794928],[82.2091444,27.8427974],[82.121095,27.8658719],[82.0700183,27.9237103],[81.9682829,27.9290536],[81.9258888,27.8600718],[81.8849591,27.8569699],[81.6984631,27.9882002],[81.4783173,28.0825307],[81.4838055,28.1183729],[81.4267287,28.1706316],[81.3747155,28.1772053],[81.3712226,28.1423975],[81.3179327,28.1335715],[81.3011744,28.1655696],[81.320562,28.1972387],[81.2326763,28.2891834],[81.2105973,28.3605649],[81.0336375,28.3990962],[81.017859,28.4518934],[80.9788841,28.4341014],[80.9796074,28.4555414],[80.9157352,28.4580715],[80.8961435,28.5069615],[80.8650411,28.490198],[80.7877981,28.5250243],[80.7682195,28.5656789],[80.6901343,28.5871642],[80.6676122,28.6417542],[80.5901967,28.6477521],[80.5678442,28.6882622],[80.5035898,28.6648644],[80.5184017,28.5507014],[80.4515031,28.6290034],[80.3605804,28.6360729],[80.2505879,28.7577885],[80.0648132,28.8375628],[80.0586717,28.916607],[80.1352114,29.0073532],[80.1451573,29.1046845],[80.1837525,29.1373657],[80.2337243,29.1161941],[80.2716923,29.1386973],[80.2440327,29.212559],[80.2977293,29.2052583],[80.3168133,29.3144376],[80.2424883,29.4425452],[80.3017658,29.4517468],[80.2868454,29.4767243],[80.3497741,29.5188557],[80.3425718,29.5528699],[80.4081896,29.5970691],[80.4201719,29.6391004],[80.3655554,29.7478027],[80.4350146,29.8061672],[80.4940941,29.7958281],[80.5528943,29.8507059],[80.6012729,29.9578935],[80.6740646,29.9571059],[80.7462262,30.0052664],[80.7607206,30.0493672],[80.8778549,30.1300069],[80.8625229,30.169295],[80.9063566,30.2197159],[80.9282386,30.1753405],[80.9957341,30.1862708],[81.044063,30.205043],[81.03086,30.247088],[80.801598,30.323033],[80.734136,30.40061],[80.60663,30.471487],[80.5411422,30.4488235],[80.418295,30.523591],[80.345478,30.520332],[80.31539,30.564537],[80.218345,30.58015],[80.219409,30.64277],[80.192574,30.666027],[80.248781,30.720413],[80.238638,30.762319],[80.21254,30.752681],[80.172791,30.809018],[80.112388,30.779679],[80.008171,30.866245],[79.930972,30.88054],[79.866039,30.971783],[79.752312,31.005804],[79.600909,30.938809],[79.552631,30.957968],[79.506865,31.03239],[79.427466,31.022924],[79.412762,31.108019],[79.312353,31.148275],[79.300861,31.219047],[79.226325,31.260592],[79.249211,31.284667],[79.220248,31.316502],[79.236496,31.334996],[79.170612,31.363133],[79.170909,31.399064],[79.099114,31.454677],[79.018892,31.426718],[79.018694,31.349011],[78.943861,31.365656],[78.899509,31.289732],[78.861582,31.3153],[78.853411,31.294407],[78.778182,31.312339],[78.749516,31.367787],[78.796741,31.444074],[78.720455,31.508868],[78.846641,31.609164],[78.798756,31.681553],[78.751134,31.680167],[78.702103,31.806491],[78.739152,31.8423404],[78.7788651,31.9935742],[78.734384,32.004954],[78.6825198,32.1148467],[78.6314525,32.1259138],[78.595748,32.197991],[78.488363,32.275637],[78.510376,32.303065],[78.454345,32.386462],[78.4724284,32.4434269],[78.3929418,32.5395644],[78.500948,32.583603],[78.52513,32.6202087],[78.6324328,32.6051113],[78.6341099,32.6453678],[78.7394997,32.6957352],[78.78136,32.616313],[78.757475,32.567181],[78.779367,32.479016],[78.968287,32.33574],[79.013599,32.381218],[79.100153,32.370628],[79.131546,32.480951],[79.248154,32.5167],[79.276039,32.556002],[79.293452,32.539559],[79.331177,32.565447],[79.350972,32.528539],[79.4134632,32.5202315],[79.4003522,32.6102956],[79.460728,32.7098224],[79.3024018,32.8869489],[79.2838411,32.9526512],[79.1749633,32.9857514],[79.1431785,33.1056724],[79.163905,33.173476],[79.071653,33.224247],[79.02622,33.320744],[78.962535,33.339475],[78.9022084,33.4104579],[78.8359291,33.4266235],[78.7340354,33.5654999],[78.7580634,33.6234365],[78.6967807,33.6387831],[78.7752406,33.7378895],[78.76411,33.9102019],[78.7281399,33.9233065],[78.7423297,34.0000135],[78.6561247,34.0322576],[78.6611892,34.0845791],[78.744259,34.0895311],[78.8620876,34.1656239],[78.9076035,34.141595],[78.979784,34.3150679],[79.0449427,34.3262331],[78.9635398,34.3873175],[78.8883437,34.3588707],[78.8511482,34.4152844],[78.7384661,34.4565343],[78.7619817,34.4812218],[78.7097062,34.5258831],[78.6129483,34.5397562],[78.5799089,34.5043863],[78.5519156,34.5715444],[78.4982291,34.5841476],[78.4354847,34.5419334],[78.4219262,34.5947733],[78.272983,34.6297702],[78.2758669,34.6960388],[78.2022153,34.7354448],[78.2372173,34.8697883],[78.1736883,34.9373327],[78.2014758,34.9730838],[78.1145094,35.0318238],[78.1463516,35.0705094],[78.1022595,35.1202253],[78.1043828,35.1662284],[78.0551339,35.1781835],[78.0032132,35.2394089],[78.0143014,35.3631302],[78.1372832,35.4916809],[78.0249689,35.4682598],[78.0006402,35.4942616],[77.9240974,35.4972106],[77.9109904,35.4620991],[77.8131712,35.5220657],[77.6903349,35.4515989],[77.6523853,35.4869248],[77.6295214,35.4622066],[77.5357661,35.4884456],[77.4450559,35.461418],[77.3797326,35.4744951],[77.3033864,35.5461575],[77.1912534,35.5204854],[77.0652544,35.5966953],[76.95756,35.5956164],[76.8485253,35.6726639],[76.8141586,35.6700256],[76.7465726,35.636793],[76.7941489,35.5829351],[76.7478433,35.5387091],[76.7963368,35.5169301],[76.8473288,35.3995612],[76.9398028,35.3968466],[76.9867093,35.3564523],[76.984203,35.3163529],[77.021661,35.2954455],[76.9771134,35.2603541],[77.0041281,35.2324808],[76.9906239,35.2106346],[77.0870052,35.1678323],[77.0704553,35.1237956],[77.1203914,35.065026],[76.9348444,35.005919],[76.8979006,34.9259701],[76.7909398,34.9530752],[76.688577,34.7457025],[76.6425068,34.7337413],[76.6337574,34.7642809],[76.597098,34.7466442],[76.4865853,34.796098],[76.419387,34.737644],[76.2575201,34.7171707],[76.2526122,34.6731866],[76.1632905,34.6326834],[76.0335806,34.6856497],[75.7850992,34.5136678],[75.5131896,34.5559637],[75.4800172,34.5336819],[75.4034333,34.5587401],[75.3651013,34.537929],[75.248544,34.6009539],[75.2662228,34.6383125],[75.0867461,34.6549567],[75.0251774,34.6289837],[74.93577,34.6726763],[74.7305659,34.6811952],[74.5802199,34.761681],[74.4484807,34.7823207],[74.309727,34.7825041],[74.1465895,34.6586085],[74.1066368,34.6799851],[73.9531379,34.6709315],[73.9281996,34.6075068],[73.9565744,34.5663465],[73.9050294,34.5279357],[73.8878311,34.4528662],[73.804728,34.4270698],[73.7500338,34.3440774],[73.8538505,34.3213679],[73.9154967,34.3512118],[73.939008,34.336531],[73.9355039,34.2832134],[73.9905304,34.270513],[74.0143453,34.1952429],[73.904686,34.1050245],[73.8960277,34.059783],[73.92524,34.0238272],[73.9859616,34.0119666],[74.0161109,34.0396137],[74.1326897,34.0469566],[74.2334958,34.023636],[74.2820286,33.935202],[74.2768024,33.8925999],[74.1894755,33.8389396],[74.0602091,33.8239262],[73.9614172,33.7234751],[73.9903788,33.6839227],[73.9811116,33.6414466],[74.0315669,33.5785112],[74.1406958,33.5577297],[74.1924993,33.4787338],[74.1662856,33.3377332],[74.0157845,33.2693331],[74.0049312,33.2217077],[74.1295342,33.1596389],[74.182914,33.0957848],[74.1701155,33.0735367],[74.3247504,33.0309118],[74.3398618,32.9533037],[74.3145221,32.9285375],[74.4148999,32.8976659],[74.4482712,32.7935718],[74.5124275,32.7450774],[74.6376307,32.7514702],[74.6586371,32.7874585],[74.632886,32.8089145],[74.7052513,32.8419547],[74.6544721,32.7290994],[74.6950998,32.6605712],[74.6384844,32.6146113],[74.6902298,32.5342565],[74.6879953,32.4870188],[74.877163,32.4938754],[74.9516442,32.4464738],[75.0155009,32.4643859],[75.0265301,32.4975874],[75.1016947,32.4774652],[75.1329117,32.4088308],[75.1917727,32.4261495],[75.1928197,32.4010051],[75.3220014,32.3436966],[75.3208022,32.2972452],[75.3814778,32.2687872],[75.3719513,32.2250995],[75.3162201,32.208041],[75.3223126,32.1793277],[75.2402693,32.0910296],[75.203406,32.1202227],[75.1742722,32.067671],[75.1229146,32.0814668],[75.0124113,32.0356792],[74.9336364,32.0656466],[74.8794267,32.0537513],[74.8190064,31.9587078],[74.6073929,31.890079],[74.5594188,31.7578568],[74.486625,31.7150538],[74.535112,31.6776251],[74.5554712,31.6079079],[74.6158901,31.5690396],[74.6128569,31.5272547],[74.5753597,31.5009072],[74.6366854,31.484739],[74.6546712,31.4259095],[74.6012549,31.4199341],[74.5517374,31.3643995],[74.5104074,31.1319629],[74.5712916,31.0813571],[74.6105575,31.0990448],[74.6032834,31.1336728],[74.6890926,31.1279422],[74.6961797,31.073775],[74.5969856,31.0376201],[74.5691539,31.0588763],[74.5457125,30.9921141],[74.4164943,30.9403476],[74.4228351,30.9077573],[74.3659723,30.8929724],[74.3821849,30.8603417],[74.3204391,30.8465501],[74.3018353,30.7793495],[74.2599928,30.772224],[74.2865145,30.7355282],[74.2324339,30.7244279],[74.1933857,30.6651251],[74.0959741,30.6114269],[74.0723421,30.5228881],[74.0119286,30.5336249],[73.9641839,30.4564335],[73.9346566,30.4901599],[73.9265058,30.4389133],[73.9738169,30.4439521],[73.8798336,30.3597616],[73.9564671,30.2760353],[73.9726891,30.198253],[73.806629,30.0679694],[73.39699,29.945934],[73.2822833,29.5720188],[72.9457797,29.0278746],[72.7331019,28.9480146],[72.403847,28.7829506],[72.3546797,28.7334352],[72.2993095,28.6697095],[72.2061986,28.3938681],[71.9273326,28.1217026],[71.8987123,27.9597403],[71.6664858,27.8778073],[71.3830714,27.8725267],[71.2055689,27.8353371],[70.8720032,27.7055479],[70.7398454,27.741907],[70.6843463,27.8282],[70.6774143,27.9218286],[70.5894978,28.0104637],[70.5057143,28.0369769],[70.3722329,28.0118243],[70.1325506,27.8059806],[70.0259269,27.5628686],[69.586829,27.1832511],[69.5133771,27.0099286],[69.4844368,26.8048731],[69.5103004,26.7435391],[69.823167,26.5889555],[70.0562782,26.6005151],[70.1742839,26.5513331],[70.175154,26.2514802],[70.0853411,26.0819078],[70.1010293,25.9388802],[70.2694211,25.7139835],[70.3870233,25.6737397],[70.6086103,25.714852],[70.6601499,25.7020206],[70.6648231,25.3968936],[70.888493,25.1481038],[70.9377056,24.9386122],[71.0947638,24.6910085],[70.98629,24.59557],[70.9985,24.44437],[71.10315,24.43572],[71.11965,24.40245],[71.04204,24.35105],[70.94692,24.34852],[70.87394,24.29485],[70.90668,24.2594],[70.714,24.21571],[70.57134,24.25175],[70.56211,24.354],[70.6025,24.40815],[70.56134,24.42085],[70.10992,24.295],[70.06654,24.19897],[70.02502,24.17103],[69.73152,24.17104],[69.59429,24.29238],[69.49398,24.26782],[69.31276,24.28143],[69.19416,24.23639],[69.09482,24.27444],[69.00342,24.22306],[68.94538,24.30253],[68.8660225,24.2122031],[68.8308,24.31152],[68.80801,24.31349],[68.7646957,24.2957886],[68.7529913,23.9714238],[68.3909667,23.9667946],[68.3642169,23.9894764],[68.3299883,23.9301861],[68.2808801,23.931418],[68.2093597,23.86986],[68.1834255,23.6824182],[68.1039841,23.6283294],[67.9544415,23.4747156]],[[88.9183607,26.325603],[88.9383462,26.3350139],[88.9814654,26.2830321],[88.9506913,26.2763276],[88.9189707,26.3243152],[88.9183607,26.325603]],[[89.1329201,26.3243492],[89.1345452,26.3244231],[89.1346929,26.3239429],[89.1347298,26.3229088],[89.1365765,26.3227241],[89.135727,26.3218747],[89.1345821,26.3220963],[89.1332894,26.3225764],[89.1329201,26.3243492]]],[[[71.5180377,11.9632962],[71.8004018,11.1217517],[72.0458562,9.9399568],[72.8352112,8.1755503],[72.9597113,8.0779967],[73.128533,8.0818468],[73.2568778,8.2170568],[73.8434197,10.0015909],[73.9058306,10.8019715],[73.8910902,10.891395],[73.138406,11.6465779],[71.9705707,12.5803095],[71.8198773,12.5935842],[71.6970345,12.5045381],[71.5180604,11.9654519],[71.5180377,11.9632962]]],[[[91.9933167,11.5849641],[92.0109173,10.9352322],[92.1977604,10.4523143],[92.5304089,9.0751991],[92.8954801,8.1918501],[93.4834403,6.9065186],[93.6802953,6.6009638],[93.7978778,6.5551465],[93.9083292,6.566242],[94.0833591,6.7257155],[94.1438044,6.9199044],[94.1407388,7.0600031],[94.0908142,7.1485097],[94.0318648,7.3730082],[93.9264561,7.5278365],[93.81389,7.6183572],[93.5933201,7.7198139],[93.7120191,7.7785458],[93.7753542,7.8841178],[93.8027816,8.0572237],[93.759648,8.2168999],[93.828409,8.2841889],[93.8583373,8.3753386],[93.8280216,8.5846619],[93.7845622,8.6852419],[93.7119316,8.755039],[93.619994,8.7827984],[93.5272618,8.7660079],[93.4170139,8.6499539],[93.4162779,8.4081519],[93.390104,8.3947427],[93.1447766,8.6474411],[92.9927411,9.0185534],[93.0321602,9.1213741],[93.0146845,9.2668972],[92.964627,9.3544553],[92.8575154,9.4413423],[92.6402099,10.3483235],[92.7586486,10.5060293],[92.7996618,10.6612546],[92.7889989,10.8161695],[92.8496945,10.892543],[92.9320316,11.0958065],[92.9070332,11.4205904],[92.9603977,11.6157032],[93.0621144,11.5792101],[93.1664849,11.5963478],[93.2492941,11.6630903],[93.2887336,11.7627962],[93.2475381,11.9671187],[93.3128007,12.0649816],[93.326113,12.1639335],[93.2926195,12.3422139],[93.175206,12.4929179],[93.1847127,12.7206488],[93.1573921,12.8292151],[93.2299761,13.0219449],[93.3077554,13.453853],[93.2628939,13.5604225],[93.2715454,13.6714874],[93.2439264,13.7541997],[93.0469937,13.8746866],[92.8791177,13.839311],[92.6990059,13.6758138],[92.485356,13.1277109],[92.4436078,12.8681529],[92.4624732,12.5742922],[92.0129923,11.671178],[91.9933394,11.587121],[91.9933167,11.5849641]]],[[[93.6468706,12.2766243],[93.7106304,12.1261718],[93.8645601,12.0638274],[94.0184898,12.1261718],[94.0822496,12.2766243],[94.0455623,12.3947739],[93.9070292,12.4851655],[93.7436183,12.4534278],[93.6510534,12.318119],[93.6468706,12.2766243]]],[[[94.0448896,13.4386653],[94.1064418,13.3022563],[94.2383615,13.2365469],[94.3878355,13.2739659],[94.4783732,13.4109119],[94.4703849,13.5249308],[94.437494,13.5832513],[94.2802876,13.6611099],[94.1258418,13.6011209],[94.0473588,13.4661487],[94.0448896,13.4386653]]]]}}